ORBCOMM FM115 [+]       
1 41186U 15081H   23261.20114790  .00001198  00000+0  28347-3 0  9998
2 41186  46.9989 187.2022 0001033 336.5073  23.5766 14.59896966414475
ORBCOMM FM108 [+]       
1 41187U 15081J   23261.34533380  .00000988  00000+0  26057-3 0  9996
2 41187  47.0039 233.4828 0003328 280.1450  79.9059 14.55892241413785
ORBCOMM FM117 [+]       
1 41188U 15081K   23261.31048066  .00001049  00000+0  27446-3 0  9998
2 41188  47.0000 232.6135 0004035 286.4882  73.5559 14.55879220413822
ORBCOMM FM116 [+]       
1 41189U 15081L   23261.30054523  .00001257  00000+0  32138-3 0  9998
2 41189  47.0033 322.4695 0001975 337.2054  22.8743 14.55889254412632
